SatCatId,ObjectName,LaunchYear,OrbitalPeriod,LaunchMass,StatusCode,Inclination,Status,UcsData,OrbitClassEstimated,LaunchSiteCountry,Owner,UseType,Purpose,LaunchVehicleClass,TLE1,TLE2,MeanMotion,Eccentricity,OrbitClass
20527,COSMOS 2061,1990,104.93,-1.0,UNK,82.94,Inactive,0,LEO,Russia,Russia/USSR,Unknown,Unknown,Unknown,1 20527U 90023A   25072.75174321  .00000102  00000+0  94983-4 0  9995,2 20527  82.9390 149.2372 0032527 103.2773  14.7248 13.72333744751948,13.72333744,0.0032527,LEO
12339,OPS 7350 (DSP 9),1981,1457.11,-1.0,UNK,9.08,Inactive,0,GSO,USA,USA,Unknown,Unknown,Unknown,1 12339U 81025A   25072.13195104 -.00000046  00000+0  00000+0 0  9993,2 12339   9.0819 308.2329 0017936 281.6440  81.7877  0.98825944 21285,0.98825944,0.0017936,GSO
20533,NAVSTAR 19 (USA 54),1990,753.77,-1.0,-,53.77,Inactive,0,MEO,USA,USA,Unknown,Unknown,Unknown,1 20533U 90025A   25071.05711936  .00000002  00000+0  00000+0 0  9996,2 20533  53.7655 262.7396 0043104 218.3029 139.0148  1.91039177246183,1.91039177,0.0043104,MEO
20536,COSMOS 2063,1990,721.51,-1.0,UNK,66.74,Inactive,0,MEO,Russia,Russia/USSR,Unknown,Unknown,Unknown,1 20536U 90026A   25072.75831109  .00000064  00000+0  00000+0 0  9991,2 20536  66.7390 195.9679 5728846 138.7113 282.9755  1.99580885255079,1.99580885,0.5728846,MEO
12351,RADUGA 8,1981,1434.12,-1.0,-,7.41,Inactive,0,GSO,Kazakhstan,Russia/USSR,Unknown,Unknown,Unknown,1 12351U 81027A   25072.06157895 -.00000332  00000+0  00000+0 0  9994,2 12351   7.4066 293.9409 0079595 259.9908  97.0990  1.00409913117910,1.00409913,0.0079595,GSO
20547,USA 55,1990,93.64,-1.0,UNK,94.09,Inactive,0,LEO,USA,USA,Unknown,Unknown,Unknown,1 20547U 90028B   25072.48054917  .00011889  00000+0  29747-3 0  9999,2 20547  94.0891 244.6250 0065616  99.5375 261.3301 15.37858582930938,15.37858582,0.0065616,LEO
20549,COSMOS 2064,1990,115.46,-1.0,UNK,73.98,Inactive,0,LEO,Russia,Russia/USSR,Unknown,Unknown,Unknown,1 20549U 90029A   25072.64060941 -.00000007  00000+0  59127-4 0  9991,2 20549  73.9785 254.6508 0017088 339.4608  88.5850 12.47216493590689,12.47216493,0.0017088,LEO
20550,COSMOS 2065,1990,115.27,-1.0,UNK,73.98,Inactive,0,LEO,Russia,Russia/USSR,Unknown,Unknown,Unknown,1 20550U 90029B   25072.59124906 -.00000019  00000+0 -20669-4 0  9992,2 20550  73.9826 191.7992 0008803 306.6161  65.0495 12.49196812593198,12.49196812,0.0008803,LEO
20551,COSMOS 2066,1990,114.31,-1.0,UNK,73.98,Inactive,0,LEO,Russia,Russia/USSR,Unknown,Unknown,Unknown,1 20551U 90029C   25072.85491641 -.00000024  00000+0 -43587-4 0  9995,2 20551  73.9808 216.2305 0048873  66.9855  44.2269 12.59702876606802,12.59702876,0.0048873,LEO
4168,TEMPSAT 2,1969,103.16,-1.0,UNK,70.02,Inactive,0,LEO,USA,USA,Unknown,Unknown,Unknown,1 04168U 69082H   25072.55090817  .00000121  00000+0  12687-3 0  9995,2 04168  70.0171   2.0096 0019627 358.6801   1.4250 13.95911259823808,13.95911259,0.0019627,LEO
20552,COSMOS 2067,1990,114.47,-1.0,UNK,73.98,Inactive,0,LEO,Russia,Russia/USSR,Unknown,Unknown,Unknown,1 20552U 90029D   25072.87123472  .00000009  00000+0  15032-3 0  9996,2 20552  73.9787 273.3246 0039792 140.2312 325.9837 12.57927855604544,12.57927855,0.0039792,LEO
20553,COSMOS 2068,1990,114.63,-1.0,UNK,73.98,Inactive,0,LEO,Russia,Russia/USSR,Unknown,Unknown,Unknown,1 20553U 90029E   25072.46672562  .00000016  00000+0  19372-3 0  9990,2 20553  73.9845 327.3166 0031447 195.0118 338.1165 12.56263979602112,12.56263979,0.0031447,LEO
20554,COSMOS 2069,1990,114.78,-1.0,UNK,73.98,Inactive,0,LEO,Russia,Russia/USSR,Unknown,Unknown,Unknown,1 20554U 90029F   25072.59228132 -.00000021  00000+0 -26744-4 0  9995,2 20554  73.9845  22.3614 0022691 254.2962 279.4999 12.54531829600186,12.54531829,0.0022691,LEO
20555,COSMOS 2070,1990,114.94,-1.0,UNK,73.98,Inactive,0,LEO,Russia,Russia/USSR,Unknown,Unknown,Unknown,1 20555U 90029G   25072.51559529  .00000007  00000+0  14908-3 0  9995,2 20555  73.9788  77.9854 0014188 299.1644 181.6743 12.52795576597716,12.52795576,0.0014188,LEO
20556,COSMOS 2071,1990,115.11,-1.0,UNK,73.98,Inactive,0,LEO,Russia,Russia/USSR,Unknown,Unknown,Unknown,1 20556U 90029H   25072.60446664  .00000020  00000+0  23162-3 0  9998,2 20556  73.9809 136.8483 0002399  16.5037  98.6902 12.50933053595334,12.50933053,0.0002399,LEO
20558,ASIASAT 1,1990,1450.95,-1.0,-,14.86,Inactive,0,GSO,PRC,ASIASAT,Unknown,Unknown,Unknown,1 20558U 90030A   25071.73169530 -.00000322  00000+0  00000+0 0  9997,2 20558  14.8627   2.4964 0002760 314.8230 252.4419  0.99245363 41633,0.99245363,0.000276,GSO
45135,ONEWEB-0022,2020,109.89,148.0,-,87.89,Inactive,1,LEO,Kazakhstan,UK,Commercial,Communications,Soyuz,1 45135U 20008E   25072.55685661 -.00000533  00000+0 -15619-2 0  9992,2 45135  87.8854 128.1269 0001710  87.5820 272.5503 13.10447600248024,13.104476,0.000171,LEO
20560,USA 56,1990,97.53,-1.0,UNK,89.84,Inactive,0,LEO,USA,USA,Unknown,Unknown,Unknown,1 20560U 90031A   25072.48744659  .00002599  00000+0  35861-3 0  9999,2 20560  89.8443 269.4556 0064654 109.1155 251.7081 14.76453410 44697,14.7645341,0.0064654,LEO
20561,USA 57,1990,97.8,-1.0,UNK,89.84,Inactive,0,LEO,USA,USA,Unknown,Unknown,Unknown,1 20561U 90031B   25072.50114222  .00001512  00000+0  22888-3 0  9999,2 20561  89.8376 273.6665 0065064 247.6472 111.7843 14.72369407 47374,14.72369407,0.0065064,LEO
20562,USA 58,1990,97.6,-1.0,UNK,89.84,Inactive,0,LEO,USA,USA,Unknown,Unknown,Unknown,1 20562U 90031C   25072.60633261  .00002257  00000+0  31924-3 0  9998,2 20562  89.8436 271.7917 0065430 140.6433 219.9570 14.75342264 45716,14.75342264,0.006543,LEO
12376,COSMOS 1261,1981,717.26,-1.0,UNK,68.43,Inactive,0,MEO,Russia,Russia/USSR,Unknown,Unknown,Unknown,1 12376U 81031A   25071.42908483 -.00000108  00000+0  00000+0 0  9993,2 12376  68.4303 117.4101 6103900   2.3418 359.7413  2.00763309218202,2.00763309,0.61039,MEO
20570,NEWSAT-1 (PALAPA B2R),1990,1446.77,-1.0,-,14.6,Inactive,0,GSO,USA,USA,Unknown,Unknown,Unknown,1 20570U 90034A   25072.52060936 -.00000072  00000+0  00000+0 0  9995,2 20570  14.5974   6.3700 0008624 135.5624  42.6947  0.99532607 41703,0.99532607,0.0008624,GSO
45148,ONEWEB-0041,2020,106.78,148.0,-,87.92,Inactive,1,LEO,Kazakhstan,UK,Commercial,Communications,Soyuz,1 45148U 20008T   25072.58483576  .00000128  00000+0  18241-3 0  9993,2 45148  87.9239  99.8874 0019456 111.6353 248.6871 13.48536845255973,13.48536845,0.0019456,LEO
20577,COSMOS 2074,1990,104.74,-1.0,UNK,82.94,Inactive,0,LEO,Russia,Russia/USSR,Unknown,Unknown,Unknown,1 20577U 90036A   25072.79226133  .00000107  00000+0  96359-4 0  9991,2 20577  82.9382  87.1494 0028142  53.6450 119.0217 13.74828953750731,13.74828953,0.0028142,LEO
12388,COSMOS 1263,1981,101.06,-1.0,UNK,82.86,Inactive,0,LEO,Russia,Russia/USSR,Unknown,Unknown,Unknown,1 12388U 81033A   25072.54093456  .00008238  00000+0  47709-3 0  9999,2 12388  82.8568 233.8173 0598394  60.1604 305.7680 14.24872095205685,14.24872095,0.0598394,LEO
20596,COSMOS 2076,1990,718.28,-1.0,UNK,68.62,Inactive,0,MEO,Russia,Russia/USSR,Unknown,Unknown,Unknown,1 20596U 90040A   25067.48499699  .00000037  00000+0  00000+0 0  9991,2 20596  68.6222 218.5034 4990486 117.8522 284.8290  2.00478241255406,2.00478241,0.4990486,MEO
12409,COSMOS 1266,1981,103.55,-1.0,UNK,64.76,Inactive,0,LEO,Kazakhstan,Russia/USSR,Unknown,Unknown,Unknown,1 12409U 81037A   25072.42045479 -.00000025  00000+0  53273-4 0  9997,2 12409  64.7604  90.8402 0023326   4.5729 355.5541 13.90577521228618,13.90577521,0.0023326,LEO
4221,AZUR (GRS A),1969,96.3,-1.0,UNK,102.68,Inactive,0,LEO,USA,Germany,Unknown,Unknown,Unknown,1 04221U 69097A   25072.50570351  .00044947  00000+0  10850-2 0  9995,2 04221 102.6820 267.2693 0355954  77.2772 286.7965 14.95290932655719,14.95290932,0.0355954,LEO
20607,MACSAT 1 (M 1),1990,97.67,-1.0,UNK,89.73,Inactive,0,LEO,USA,USA,Unknown,Unknown,Unknown,1 20607U 90043A   25072.78756882  .00001891  00000+0  26524-3 0  9998,2 20607  89.7257 259.1571 0090112 191.5457 168.3699 14.74301536867388,14.74301536,0.0090112,LEO
20608,MACSAT 2 (M 2),1990,97.34,-1.0,UNK,89.73,Inactive,0,LEO,USA,USA,Unknown,Unknown,Unknown,1 20608U 90043B   25072.56437102  .00002193  00000+0  27512-3 0  9990,2 20608  89.7272 260.1070 0084257  20.6870 339.7729 14.79351692870268,14.79351692,0.0084257,LEO
28809,KIRARI (OICETS),2005,94.94,-1.0,UNK,98.13,Inactive,0,LEO,Kazakhstan,Japan,Unknown,Unknown,Unknown,1 28809U 05031A   25072.56593494  .00008510  00000+0  43481-3 0  9993,2 28809  98.1264 288.4379 0022643 160.2139 199.9976 15.16739374 68582,15.16739374,0.0022643,LEO
20619,COSMOS 2079 [GLONASS],1990,675.73,-1.0,-,64.99,Inactive,0,MEO,Kazakhstan,Russia/USSR,Unknown,Unknown,Unknown,1 20619U 90045A   25070.32753203 -.00000056  00000+0  00000+0 0  9995,2 20619  64.9907 324.4121 0044817 206.7712 335.2720  2.13102998270894,2.13102998,0.0044817,MEO
20620,COSMOS 2080 [GLONASS],1990,675.73,-1.0,-,64.98,Inactive,0,MEO,Kazakhstan,Russia/USSR,Unknown,Unknown,Unknown,1 20620U 90045B   25072.08705779 -.00000053  00000+0  00000+0 0  9994,2 20620  64.9847 324.2991 0025271  32.4675 328.3567  2.13103132270788,2.13103132,0.0025271,MEO
4237,OPS 7613 (P/L 4),1969,103.16,-1.0,UNK,70.02,Inactive,0,LEO,USA,USA,Unknown,Unknown,Unknown,1 04237U 69082E   25072.85913066  .00000129  00000+0  13250-3 0  9990,2 04237  70.0174   7.1862 0020040   2.4604  58.4985 13.95890568822581,13.95890568,0.002004,LEO
20621,COSMOS 2081 [GLONASS],1990,675.72,-1.0,-,65.01,Inactive,0,MEO,Kazakhstan,Russia/USSR,Unknown,Unknown,Unknown,1 20621U 90045C   25070.48037868 -.00000056  00000+0  00000+0 0  9997,2 20621  65.0097 324.6396 0042957 216.9154 345.7547  2.13104773270820,2.13104773,0.0042957,MEO
20624,COSMOS 2082,1990,101.79,-1.0,UNK,71.04,Inactive,0,LEO,Kazakhstan,Russia/USSR,Unknown,Unknown,Unknown,1 20624U 90046A   25072.37689647 -.00000110  00000+0 -32286-4 0  9997,2 20624  71.0393  57.6512 0013507  27.2452 332.9376 14.14737361796522,14.14737361,0.0013507,LEO
